24793,IRIDIUM 7,1997,100.28,-1.0,-,86.4,Inactive,0,LEO,USA,USA,Unknown,Unknown,Unknown,1 24793U 97020B   25171.73132883  .00000289  00000+0  92810-4 0  9996,2 24793  86.3981 175.4261 0002592  91.2515 268.8978 14.35941522472624,14.35941522,0.0002592,LEO
24795,IRIDIUM 5,1997,96.36,-1.0,-,86.39,Inactive,0,LEO,USA,USA,Unknown,Unknown,Unknown,1 24795U 97020D   25171.18882424  .00003044  00000+0  24747-3 0  9995,2 24795  86.3886  82.3491 0110759 126.7135 234.4331 14.94377175485918,14.94377175,0.0110759,LEO
24796,IRIDIUM 4,1997,100.22,-1.0,-,86.4,Inactive,0,LEO,USA,USA,Unknown,Unknown,Unknown,1 24796U 97020E   25171.29470560  .00000304  00000+0  96148-4 0  9993,2 24796  86.3977 172.4873 0002351  92.3428 267.8038 14.36843966472918,14.36843966,0.0002351,LEO
24836,IRIDIUM 914,1997,99.94,-1.0,-,86.4,Inactive,0,LEO,Kazakhstan,USA,Unknown,Unknown,Unknown,1 24836U 97030A   25171.63629566  .00000338  00000+0  99135-4 0  9995,2 24836  86.3956 180.9299 0002092 132.0057 228.1321 14.40874411469722,14.40874411,0.0002092,LEO
24841,IRIDIUM 16,1997,100.09,-1.0,-,86.4,Inactive,0,LEO,Kazakhstan,USA,Unknown,Unknown,Unknown,1 24841U 97030F   25171.53183726  .00000252  00000+0  75697-4 0  9995,2 24841  86.4048 203.8696 0004363  73.2280 286.9397 14.38716868467747,14.38716868,0.0004363,LEO
24842,IRIDIUM 911,1997,99.47,-1.0,-,86.45,Inactive,0,LEO,Kazakhstan,USA,Unknown,Unknown,Unknown,1 24842U 97030G   25171.36528714  .00000378  00000+0  96779-4 0  9990,2 24842  86.4473 202.7059 0016597  87.7260 272.5843 14.47642599475544,14.47642599,0.0016597,LEO
24870,IRIDIUM 17,1997,100.15,-1.0,-,86.4,Inactive,0,LEO,USA,USA,Unknown,Unknown,Unknown,1 24870U 97034B   25171.45155690  .00000296  00000+0  91719-4 0  9992,2 24870  86.3961 233.3790 0002907  58.5412 301.6070 14.37831448464055,14.37831448,0.0002907,LEO
24871,IRIDIUM 920,1997,99.89,-1.0,-,86.4,Inactive,0,LEO,USA,USA,Unknown,Unknown,Unknown,1 24871U 97034C   25171.83305318  .00000269  00000+0  76561-4 0  9997,2 24871  86.3985 212.4449 0013805  73.5276 286.7440 14.41536539467364,14.41536539,0.0013805,LEO
